STARLINK-33626          
1 63369U 25063G   25132.85909436 -.00254736  00000+0 -58361-2 0  9993
2 63369  53.1605  18.8317 0001731 354.5997   5.4990 15.43179964  8498
STARLINK-33657          
1 63370U 25063H   25132.91668981 -.00060125  00000+0 -15036-2 0  9998
2 63370  53.1600  18.9555 0001091  80.1738  41.6367 15.39648475  6192
STARLINK-33648          
1 63371U 25063J   25133.10343780 -.00001631  00000+0 -30841-4 0  9998
2 63371  53.1610  18.2241 0001161 108.9167 251.1964 15.39593677  8604
STARLINK-33614          
1 63372U 25063K   25133.25002315  .00019089  00000+0  48604-3 0  9990
2 63372  53.1603  17.2861 0001242  75.4234 144.6099 15.39617666  8629
STARLINK-33617          
1 63373U 25063L   25132.91685956 -.00000373  00000+0  11240-5 0  9996
2 63373  53.1614  18.4801 0001135  89.3849 270.7288 15.45558885  8531
STARLINK-33618          
1 63374U 25063M   25133.17537924 -.00084572  00000+0 -17852-2 0  9993
2 63374  53.1622  17.2508 0000960  41.3832 318.7248 15.44850105  8614
STARLINK-33621          
1 63375U 25063N   25133.25002315  .00012939  00000+0  33298-3 0  9993
2 63375  53.1598  17.1316 0001106  84.1968 213.1248 15.39613586  8556
STARLINK-33539          
1 63376U 25063P   25133.08517625 -.00001791  00000+0 -48357-4 0  9999
2 63376  53.1619  18.8012 0001154  73.5882 286.5245 15.30201233  8512
STARLINK-33634          
1 63377U 25063Q   25133.05732900 -.00003146  00000+0 -68728-4 0  9992
2 63377  53.1610  17.9348 0001346  70.0147 290.1003 15.39611012  8607
STARLINK-33640          
1 63378U 25063R   25132.97729687 -.00000586  00000+0 -32341-5 0  9999
2 63378  53.1611  18.1463 0001244  82.8100 277.3049 15.45561088  8596
STARLINK-33636          
1 63379U 25063S   25132.91668981 -.00069017  00000+0 -17295-2 0  9995
2 63379  53.1605  18.8514 0001159  84.2534  89.0597 15.39647600  6194
STARLINK-33653          
1 63380U 25063T   25132.91668981 -.00070220  00000+0 -17602-2 0  9997
2 63380  53.1605  18.7522 0000871  97.1828 125.8036 15.39646423  8509
STARLINK-33643          
1 63381U 25063U   25133.06627008  .00001654  00000+0  51330-4 0  9991
2 63381  53.1619  17.9921 0001018  83.3664 276.7456 15.39610552  8593
STARLINK-33633          
1 63382U 25063V   25133.10506833 -.00000532  00000+0 -21352-5 0  9997
2 63382  53.1609  17.5193 0001143  87.6234 272.4904 15.45555422  8502
STARLINK-33748          
1 63383U 25063W   25132.94411623  .00000843  00000+0  40618-4 0  9999
2 63383  53.1611  20.0646 0001172  90.2292 269.8843 15.30177114  8564
STARLINK-33658          
1 63384U 25063X   25133.23078467 -.00085849  00000+0 -18124-2 0  9994
2 63384  53.1623  16.8843 0001199  62.5648 297.5481 15.44852714  8620
STARLINK-33616          
1 63385U 25063Y   25133.00732035 -.00001051  00000+0 -23386-4 0  9999
2 63385  53.1617  19.7563 0001245  61.8431 298.2696 15.30191512  8464
STARLINK-33571          
1 63386U 25063Z   25133.05785841  .00002073  00000+0  82170-4 0  9997
2 63386  53.1618  19.3329 0001293  60.3809 299.7320 15.30176417  8498
STARLINK-33533          
1 63387U 25063AA  25133.25002315  .00032293  00000+0  81446-3 0  9999
2 63387  53.1602  17.3305 0001050  74.1721 121.9847 15.39598577  8541
STARLINK-33629          
1 63388U 25063AB  25132.33951983 -.00060129  00000+0 -13262-2 0  9993
2 63388  53.1619  21.2719 0005293  32.7961 327.3373 15.43387928  8482
STARLINK-33656          
1 63389U 25063AC  25132.91668981 -.00064886  00000+0 -16243-2 0  9997
2 63389  53.1604  18.7480 0001262  91.6446 133.1749 15.39651403  8574
LEMUR-2-BALTO           
1 63395U 25052BH  25132.67678257  .00005048  00000+0  47795-3 0  9992
2 63395  97.7320  26.8844 0000742 294.4203  65.6939 14.94066156  8845
TJS-16                  
1 63397U 25064A   25132.90947671 -.00000162  00000+0  00000+0 0  9999
2 63397   0.0837  52.5694 0001710  55.7298 242.4940  1.00274758   373
STARLINK-33531          
1 63399U 25065A   25133.01692537 -.00001020  00000+0 -17149-4 0  9995
2 63399  43.0041  12.2443 0001646 276.4309  83.6360 15.40687980  7515
STARLINK-33652          
1 63400U 25065B   25132.91668981 -.00087244  00000+0 -21024-2 0  9999
2 63400  43.0009  12.4027 0001667 271.8864  65.7637 15.40739317  6216
STARLINK-33707          
1 63401U 25065C   25132.97001558  .00009568  00000+0  23639-3 0  9993
2 63401  43.0056  12.7567 0000465  53.6061 306.4838 15.40653082  7270
STARLINK-33668          
1 63402U 25065D   25132.91668981 -.00062857  00000+0 -15085-2 0  9994
2 63402  43.0006  12.6445 0001629 276.9544 321.1777 15.40726693  6150
STARLINK-33676          
1 63403U 25065E   25133.01019641 -.00000412  00000+0 -25989-5 0  9996
2 63403  43.0057  12.1885 0001396 277.2209  82.8488 15.40692830  7519
STARLINK-33711          
1 63404U 25065F   25132.96329406 -.00001072  00000+0 -18416-4 0  9992
2 63404  43.0064  12.7048 0001171 274.7513  85.3210 15.40691330  7555
STARLINK-33708          
1 63405U 25065G   25133.25002315  .00040316  00000+0  96753-3 0  9994
2 63405  43.0011  10.3883 0001927 273.3356 152.6740 15.40692033  7601
STARLINK-33690          
1 63406U 25065H   25132.95881086  .00002740  00000+0  72855-4 0  9998
2 63406  43.0013  12.6687 0001133 269.0112  91.0614 15.40684154  6769
STARLINK-33694          
1 63407U 25065J   25133.05710529 -.00000186  00000+0  28098-5 0  9998
2 63407  43.0066  11.6729 0001214 307.6224  52.4522 15.40695431  7576
STARLINK-33692          
1 63408U 25065K   25133.25002315  .00039302  00000+0  94396-3 0  9991
2 63408  43.0008  10.0793 0001561 283.3019 267.0926 15.40677777  7603
STARLINK-33693          
1 63409U 25065L   25132.99675995 -.00001004  00000+0 -16781-4 0  9995
2 63409  43.0038  12.0817 0001198 269.2216  90.8503 15.40693186  7519
STARLINK-33677          
1 63410U 25065M   25125.91698511  .00054282  00000+0  12965-2 0  9992
2 63410  43.0005  52.6900 0001175 263.2921  96.7801 15.40723017  6477
STARLINK-33647          
1 63411U 25065N   25133.04464236 -.00041622  00000+0 -15017-2 0  9998
2 63411  42.9996  12.4496 0000738 283.8794  76.1975 15.27793022  7562
STARLINK-33645          
1 63412U 25065P   25133.05906331  .00003692  00000+0  95677-4 0  9992
2 63412  43.0013   9.8836 0001483 283.9018  76.1674 15.40673872  7371
STARLINK-33670          
1 63413U 25065Q   25133.25002315  .00025450  00000+0  61460-3 0  9992
2 63413  43.0011   9.4545 0001546 276.4137 162.8286 15.40693598  7562
STARLINK-33644          
1 63414U 25065R   25125.48541816 -.00099540  00000+0 -23032-2 0  9998
2 63414  43.0005  53.6948 0004382  50.7684 309.3561 15.42003894  5631
STARLINK-33664          
1 63415U 25065S   25133.06355658 -.00182526  00000+0 -43234-2 0  9992
2 63415  43.0014   9.9524 0001769 258.2366 101.8293 15.41680104  7435
STARLINK-33649          
1 63416U 25065T   25125.86123072  .04632806  00000+0  57346-1 0  9996
2 63416  42.9996  51.3496 0029390 199.1042 160.8719 15.54710802  5693
STARLINK-33535          
1 63417U 25065U   25132.69116484 -.00001135  00000+0 -13527-4 0  9994
2 63417  43.0023  11.4373 0001387 264.0915  95.9788 15.50579425  6757
STARLINK-33703          
1 63418U 25065V   25133.25002315  .00027313  00000+0  65897-3 0  9995
2 63418  43.0009   8.8998 0001487 282.0130  21.1401 15.40690240  7454
STARLINK-33709          
1 63419U 25065W   25133.01439274 -.00000117  00000+0  44791-5 0  9994
2 63419  43.0045  10.4355 0001677 284.9479  75.1192 15.40699665  7411
STARLINK-33698          
1 63420U 25065X   25133.01290162  .00004254  00000+0  78363-4 0  9993
2 63420  43.0024   9.5520 0001564 280.4350  79.6334 15.50552220  7421
STARLINK-33606          
1 63421U 25065Y   25132.77734642 -.00000698  00000+0 -94379-5 0  9998
2 63421  43.0023  11.2283 0001526 271.5186  88.5496 15.40691755  6763
STARLINK-33686          
1 63422U 25065Z   25124.95964600  .00035068  00000+0  60057-3 0  9990
2 63422  43.0007  56.6268 0001739 285.8458  74.2211 15.50594180  5556
STARLINK-33675          
1 63423U 25065AA  25126.50514653  .00131917  00000+0  22563-2 0  9992
2 63423  42.9999  47.5816 0004252  10.3244 349.7703 15.50074070  5793
STARLINK-33655          
1 63424U 25065AB  25133.01015169  .00078702  00000+0  13334-2 0  9993
2 63424  42.9996   9.5267 0001865 269.4422  90.6225 15.50588936  7436
STARLINK-33608          
1 63425U 25065AC  25132.94676761 -.00000620  00000+0 -47488-5 0  9992
2 63425  43.0029   9.9140 0001413 266.6135  93.4564 15.50575351  6791
STARLINK-33615          
1 63426U 25065AD  25133.25002315  .00030534  00000+0  73555-3 0  9993
2 63426  43.0009   8.7156 0001594 278.7003  99.0941 15.40688896  7455
2025-067A               
1 63428U 25067A   25133.16594056  .00052532  00000+0  10999-2 0  9999
2 63428  54.9964  19.5578 0006931  45.7364 314.4235 15.44969883  6482
2025-067B               
1 63429U 25067B   25133.16777644  .00010882  00000+0  28988-3 0  9996
2 63429  54.9968  20.2517 0014010  52.1714 308.0580 15.38675584  6484
2025-067C               
1 63430U 25067C   25133.16994708  .00010282  00000+0  27571-3 0  9991
2 63430  54.9972  20.2668 0012900  48.9852 311.2289 15.38550216  6475
2025-067D               
1 63431U 25067D   25133.17154274  .00013923  00000+0  36891-3 0  9999
2 63431  54.9976  20.2776 0011458  46.4599 313.7379 15.38620300  6477
TIANPING-3A 02          
1 63432U 25068A   25133.10117986  .00005441  00000+0  41097-3 0  9993
2 63432  43.0065   3.4562 0243510 342.7551  16.5121 14.82597796  5919
STARLINK-33682          
1 63433U 25069A   25132.91668981  .00008585  00000+0  22428-3 0  9998
2 63433  53.1596 107.8996 0001381  89.1908  39.8014 15.39632625  6214
STARLINK-33710          
1 63434U 25069B   25132.91668981  .00034466  00000+0  86803-3 0  9993
2 63434  53.1595 107.9539 0001328  93.3297   8.1066 15.39609250  6211
STARLINK-33733          
1 63435U 25069C   25132.91668981  .00040203  00000+0  10104-2 0  9990
2 63435  53.1596 107.8528 0001270  96.5914  56.3496 15.39600298  6212
